NORAD_CAT_ID,OBJECT_NAME,OBJECT_TYPE,EPOCH,MEAN_MOTION,ECCENTRICITY,INCLINATION,RA_OF_ASC_NODE,ARG_OF_PERICENTER,MEAN_ANOMALY,BSTAR,MEAN_MOTION_DOT,MEAN_MOTION_DDOT,TLE_LINE0,TLE_LINE1,TLE_LINE2,SEMIMAJOR_AXIS,PERIOD,APOGEE,PERIGEE,DECAYED
52355.0,STARLINK-3877,PAYLOAD,2022-10-07 17:34:35,15.08844512,0.0001751,53.2193,45.9174,43.5899,316.5231,6.9738e-05,8.22e-06,0.0,0 STARLINK-3877,1 52355U 22045AA  22280.73235099  .00000822  00000-0  69738-4 0  9994,2 52355  53.2193  45.9174 0001751  43.5899 316.5231 15.08844512 27230,6917.8669999999975,95.437,540.943,538.52,0.0
52355.0,STARLINK-3877,PAYLOAD,2022-10-08 01:31:30,15.08842145,0.0002185,53.2193,44.4304,60.9023,299.2187,5.5027e-05,5.88e-06,0.0,0 STARLINK-3877,1 52355U 22045AA  22281.06355221  .00000588  00000-0  55027-4 0  9996,2 52355  53.2193  44.4304 0002185  60.9023 299.2187 15.08842145 27285,6917.874,95.437,541.25,538.227,0.0
52355.0,STARLINK-3877,PAYLOAD,2022-10-08 11:03:50,15.08827719,0.0001802,53.2191,42.645,48.0283,312.0863,-4.5435e-05,-1.011e-05,0.0,0 STARLINK-3877,1 52355U 22045AA  22281.46100547 -.00001011  00000-0 -45435-4 0  9995,2 52355  53.2191  42.6450 0001802  48.0283 312.0863 15.08827719 27347,6917.918000000002,95.438,541.03,538.536,0.0
52355.0,STARLINK-3877,PAYLOAD,2022-10-08 12:39:13,15.08831276,0.0001802,53.2198,42.3473,49.9646,310.1504,-1.537e-05,-5.33e-06,0.0,0 STARLINK-3877,1 52355U 22045AA  22281.52724296 -.00000533  00000-0 -15370-4 0  9998,2 52355  53.2198  42.3473 0001802  49.9646 310.1504 15.08831276 27354,6917.906999999997,95.438,541.019,538.525,0.0
52355.0,STARLINK-3877,PAYLOAD,2022-10-08 17:25:23,15.08831575,0.0001927,53.2198,41.4563,50.1638,309.9524,3.1283e-06,-2.38e-06,0.0,0 STARLINK-3877,1 52355U 22045AA  22281.72596293 -.00000238  00000-0  31283-5 0  9997,2 52355  53.2198  41.4563 0001927  50.1638 309.9524 15.08831575 27380,6917.906,95.438,541.104,538.438,0.0
52355.0,STARLINK-3877,PAYLOAD,2022-10-09 01:22:18,15.08839946,0.0001865999999999,53.22,39.969,47.9433,312.1718,-1.0917e-05,-4.62e-06,0.0,0 STARLINK-3877,1 52355U 22045AA  22282.05715893 -.00000462  00000-0 -10917-4 0  9993,2 52355  53.2200  39.9690 0001866  47.9433 312.1718 15.08839946 27433,6917.880999999999,95.438,541.036,538.455,0.0
52355.0,STARLINK-3877,PAYLOAD,2022-10-09 12:30:00,15.08839636,0.0001778,53.2203,37.88800000000001,46.566,313.548,-5.6208e-07,-2.97e-06,0.0,0 STARLINK-3877,1 52355U 22045AA  22282.52083788 -.00000297  00000-0 -56208-6 0  9997,2 52355  53.2203  37.8880 0001778  46.5660 313.5480 15.08839636 27508,6917.882,95.438,540.977,538.5169999999998,0.0
52355.0,STARLINK-3877,PAYLOAD,2022-10-09 17:16:09,15.0886325,0.0001706,53.22,36.9958,60.6484,299.4678,-0.00023784,-4.074e-05,0.0,0 STARLINK-3877,1 52355U 22045AA  22282.71955127 -.00004074  00000-0 -23784-3 0  9990,2 52355  53.2200  36.9958 0001706  60.6484 299.4678 15.08863250 27536,6917.809,95.436,540.855,538.494,0.0
52355.0,STARLINK-3877,PAYLOAD,2022-10-10 01:13:05,15.08842753,0.0001851,53.2191,35.5094,46.9466,313.1681,1.9866e-05,2.8e-07,0.0,0 STARLINK-3877,1 52355U 22045AA  22283.05075435  .00000028  00000-0  19866-4 0  9993,2 52355  53.2191  35.5094 0001851  46.9466 313.1681 15.08842753 27587,6917.871999999999,95.437,541.0169999999998,538.456,0.0
52355.0,STARLINK-3877,PAYLOAD,2022-10-10 12:20:46,15.08839787,0.0001771,53.2196,33.4274,51.8108,308.3044,0.00012152,1.646e-05,0.0,0 STARLINK-3877,1 52355U 22045AA  22283.51443104  .00001646  00000-0  12152-3 0  9993,2 52355  53.2196  33.4274 0001771  51.8108 308.3044 15.08839787 27658,6917.880999999999,95.438,540.971,538.521,0.0
52355.0,STARLINK-3877,PAYLOAD,2022-10-10 17:06:56,15.08841122,0.0002059,53.2184,32.5358,42.3111,317.8040000000001,0.0001373,1.898e-05,0.0,0 STARLINK-3877,1 52355U 22045AA  22283.71315022  .00001898  00000-0  13730-3 0  9994,2 52355  53.2184  32.5358 0002059  42.3111 317.8040 15.08841122 27687,6917.877,95.437,541.1659999999998,538.318,0.0
52355.0,STARLINK-3877,PAYLOAD,2022-10-11 10:36:12,15.08828621,0.0001689,53.2192,29.2646,48.3026,311.8111,-6.4143e-05,-1.308e-05,0.0,0 STARLINK-3877,1 52355U 22045AA  22284.44180605 -.00001308  00000-0 -64143-4 0  9995,2 52355  53.2192  29.2646 0001689  48.3026 311.8111 15.08828621 27792,6917.915,95.438,540.9490000000002,538.612,0.0
52355.0,STARLINK-3877,PAYLOAD,2022-10-11 16:57:46,15.08812115,0.0001824,53.2181,28.0749,37.4416,322.6703,-0.00020603,-3.563e-05,0.0,0 STARLINK-3877,1 52355U 22045AA  22284.70678398 -.00003563  00000-0 -20603-3 0  9992,2 52355  53.2181  28.0749 0001824  37.4416 322.6703 15.08812115 27837,6917.965999999999,95.439,541.092,538.569,0.0
52355.0,STARLINK-3877,PAYLOAD,2022-10-12 12:02:22,15.08832814,0.0002065999999999,53.2183,24.509,40.4737,319.6409,-5.4282e-05,-1.152e-05,0.0,0 STARLINK-3877,1 52355U 22045AA  22285.50165466 -.00001152  00000-0 -54282-4 0  9991,2 52355  53.2183  24.5090 0002066  40.4737 319.6409 15.08832814 27958,6917.901999999999,95.438,541.197,538.3380000000002,0.0
52355.0,STARLINK-3877,PAYLOAD,2022-10-12 13:37:45,15.08845143,0.0002096,53.2177,24.2113,39.7605,320.3540000000001,-0.00015108,-2.692e-05,0.0,0 STARLINK-3877,1 52355U 22045AA  22285.56788993 -.00002692  00000-0 -15108-3 0  9996,2 52355  53.2177  24.2113 0002096  39.7605 320.3540 15.08845143 27967,6917.865,95.437,541.18,538.28,0.0
52355.0,STARLINK-3877,PAYLOAD,2022-10-12 16:48:31,15.0884082,0.0002012,53.2173,23.6152,39.5853,320.5286,3.8603e-05,3.26e-06,0.0,0 STARLINK-3877,1 52355U 22045AA  22285.70036710  .00000326  00000-0  38603-4 0  9991,2 52355  53.2173  23.6152 0002012  39.5853 320.5286 15.08840820 27988,6917.878000000002,95.438,541.135,538.351,0.0
52355.0,STARLINK-3877,PAYLOAD,2022-10-13 10:17:45,15.08835736,0.0002115,53.2182,20.3454,41.1493,318.9658,0.00025878,3.832e-05,0.0,0 STARLINK-3877,1 52355U 22045AA  22286.42900255  .00003832  00000-0  25878-3 0  9999,2 52355  53.2182  20.3454 0002115  41.1493 318.9658 15.08835736 28097,6917.893,95.438,541.222,538.295,0.0
52355.0,STARLINK-3877,PAYLOAD,2022-10-13 15:03:55,15.0882919,0.0001916,53.218,19.4529,39.7088,320.4044,0.00017734,2.535e-05,0.0,0 STARLINK-3877,1 52355U 22045AA  22286.62773016  .00002535  00000-0  17734-3 0  9995,2 52355  53.2180  19.4529 0001916  39.7088 320.4044 15.08829190 28126,6917.913000000001,95.438,541.104,538.453,0.0
52355.0,STARLINK-3877,PAYLOAD,2022-10-14 11:43:57,15.08829351,0.0001981,53.2185,15.5883,42.1444,317.97,-2.0786e-05,-6.19e-06,0.0,0 STARLINK-3877,1 52355U 22045AA  22287.48886310 -.00000619  00000-0 -20786-4 0  9997,2 52355  53.2185  15.5883 0001981  42.1444 317.9700 15.08829351 28250,6917.913000000001,95.438,541.148,538.408,0.0
52355.0,STARLINK-3877,PAYLOAD,2022-10-14 16:30:06,15.08838772,0.0002097,53.2185,14.6969,39.6296,320.4849,2.5666e-05,1.2e-06,0.0,0 STARLINK-3877,1 52355U 22045AA  22287.68757658  .00000120  00000-0  25666-4 0  9998,2 52355  53.2185  14.6969 0002097  39.6296 320.4849 15.08838772 28283,6917.884,95.438,541.2,538.298,0.0
52355.0,STARLINK-3877,PAYLOAD,2022-10-14 22:51:38,15.08852646,0.0002078,53.2173,13.5052,35.1997,324.9133,5.8104e-05,6.37e-06,0.0,0 STARLINK-3877,1 52355U 22045AA  22287.95252487  .00000637  00000-0  58104-4 0  9994,2 52355  53.2173  13.5052 0002078  35.1997 324.9133 15.08852646 28325,6917.842,95.437,541.144,538.269,0.0
52355.0,STARLINK-3877,PAYLOAD,2022-10-15 11:34:43,15.08872095,0.0002265,53.2171,11.1278,44.6896,315.4278,-0.00030638,-5.166e-05,0.0,0 STARLINK-3877,1 52355U 22045AA  22288.48244478 -.00005166  00000-0 -30638-3 0  9999,2 52355  53.2171  11.1278 0002265  44.6896 315.4278 15.08872095 28402,6917.781999999997,95.436,541.214,538.08,0.0
52355.0,STARLINK-3877,PAYLOAD,2022-10-15 14:45:29,15.08851619,0.0002334,53.2186,10.5345,39.1752,320.9408,3.2335e-05,2.26e-06,0.0,0 STARLINK-3877,1 52355U 22045AA  22288.61492305  .00000226  00000-0  32335-4 0  9995,2 52355  53.2186  10.5345 0002334  39.1752 320.9408 15.08851619 28420,6917.845,95.437,541.3240000000002,538.095,0.0
52355.0,STARLINK-3877,PAYLOAD,2022-10-15 22:42:25,15.08840906,0.0002334999999999,53.2184,9.0477,41.994,318.1231,1.7344000000000002e-05,-1.2e-07,0.0,0 STARLINK-3877,1 52355U 22045AA  22288.94612914 -.00000012  00000-0  17344-4 0  9998,2 52355  53.2184   9.0477 0002335  41.9940 318.1231 15.08840906 28473,6917.878000000002,95.437,541.3580000000002,538.127,0.0
52355.0,STARLINK-3877,PAYLOAD,2022-10-16 13:00:55,15.08817989,0.0002129,53.2185,6.3704,39.2486,320.866,-0.00017566,-3.081e-05,0.0,0 STARLINK-3877,1 52355U 22045AA  22289.54231370 -.00003081  00000-0 -17566-3 0  9993,2 52355  53.2185   6.3704 0002129  39.2486 320.8660 15.08817989 28564,6917.948,95.439,541.285,538.34,0.0
52355.0,STARLINK-3877,PAYLOAD,2022-10-16 14:36:19,15.08818597,0.0002126,53.2184,6.0729,39.3906,320.7241,-0.00016854,-2.968e-05,0.0,0 STARLINK-3877,1 52355U 22045AA  22289.60855377 -.00002968  00000-0 -16854-3 0  9991,2 52355  53.2184   6.0729 0002126  39.3906 320.7241 15.08818597 28573,6917.946,95.439,541.2819999999998,538.34,0.0
52355.0,STARLINK-3877,PAYLOAD,2022-10-17 04:54:46,15.08831294,0.0001936,53.2187,3.3932,35.3494,324.7627,-0.00015081,-2.687e-05,0.0,0 STARLINK-3877,1 52355U 22045AA  22290.20470781 -.00002687  00000-0 -15081-3 0  9990,2 52355  53.2187   3.3932 0001936  35.3494 324.7627 15.08831294 28669,6917.906999999997,95.438,541.111,538.433,0.0
52355.0,STARLINK-3877,PAYLOAD,2022-10-17 11:16:18,15.08844966,0.000222,53.2183,2.2068,41.2309,318.8851,-3.549e-05,-8.53e-06,0.0,0 STARLINK-3877,1 52355U 22045AA  22290.46965759 -.00000853  00000-0 -35490-4 0  9992,2 52355  53.2183   2.2068 0002220  41.2309 318.8851 15.08844966 28709,6917.865,95.437,541.266,538.194,0.0
52355.0,STARLINK-3877,PAYLOAD,2022-10-17 14:27:04,15.0884654,0.0002258,53.2183,1.6122,41.6146,318.5018,-1.5967e-05,-5.43e-06,0.0,0 STARLINK-3877,1 52355U 22045AA  22290.60213574 -.00000543  00000-0 -15967-4 0  9992,2 52355  53.2183   1.6122 0002258  41.6146 318.5018 15.08846540 28721,6917.86,95.437,541.2869999999998,538.163,0.0
